{"city": "\u5f70\u5316\u7e23", "ccode": "changhua", "town": [{"town": "\u5f70\u5316\u5e02", "zipcode": "500", "data": [{"id": "017388", "name": "\u5168\u5bb6\u5f70\u5316\u9435\u76ae\u5e97", "address": "\u5f70\u5316\u7e23\u5f70\u5316\u5e02\u5e73\u548c\u5341\u56db\u8857\uff16\uff17\u865f", "zipcode": "500", "city": "\u5f70\u5316\u7e23", "town": "\u5f70\u5316\u5e02", "data": [{"name": "\u6709\u6a5f\u96ea\u767d\u83c7", "qty": 2, "scate": "\u6839\u8396\u679c\uff08\u514d\u7a05\uff09", "cate": "\u852c\u679c"}]}]}, {"town": "\u82ac\u5712\u9109", "zipcode": "502", "data": []}, {"town": "\u82b1\u58c7\u9109", "zipcode": "503", "data": []}, {"town": "\u79c0\u6c34\u9109", "zipcode": "504", "data": []}, {"town": "\u9e7f\u6e2f\u93ae", "zipcode": "505", "data": []}, {"town": "\u798f\u8208\u9109", "zipcode": "506", "data": []}, {"town": "\u7dda\u897f\u9109", "zipcode": "507", "data": []}, {"town": "\u548c\u7f8e\u93ae", "zipcode": "508", "data": []}, {"town": "\u4f38\u6e2f\u9109", "zipcode": "509", "data": []}, {"town": "\u54e1\u6797\u5e02", "zipcode": "510", "data": []}, {"town": "\u793e\u982d\u9109", "zipcode": "511", "data": []}, {"town": "\u6c38\u9756\u9109", "zipcode": "512", "data": []}, {"town": "\u57d4\u5fc3\u9109", "zipcode": "513", "data": []}, {"town": "\u6eaa\u6e56\u93ae", "zipcode": "514", "data": []}, {"town": "\u5927\u6751\u9109", "zipcode": "515", "data": []}, {"town": "\u57d4\u9e7d\u9109", "zipcode": "516", "data": []}, {"town": "\u7530\u4e2d\u93ae", "zipcode": "520", "data": []}, {"town": "\u5317\u6597\u93ae", "zipcode": "521", "data": []}, {"town": "\u7530\u5c3e\u9109", "zipcode": "522", "data": []}, {"town": "\u57e4\u982d\u9109", "zipcode": "523", "data": []}, {"town": "\u6eaa\u5dde\u9109", "zipcode": "524", "data": []}, {"town": "\u7af9\u5858\u9109", "zipcode": "525", "data": []}, {"town": "\u4e8c\u6797\u93ae", "zipcode": "526", "data": []}, {"town": "\u5927\u57ce\u9109", "zipcode": "527", "data": []}, {"town": "\u82b3\u82d1\u9109", "zipcode": "528", "data": []}, {"town": "\u4e8c\u6c34\u9109", "zipcode": "530", "data": []}], "updatetime": 1763230646}