{"city": "\u5609\u7fa9\u7e23", "ccode": "chiayicounty", "town": [{"town": "\u756a\u8def\u9109", "zipcode": "602", "data": []}, {"town": "\u6885\u5c71\u9109", "zipcode": "603", "data": []}, {"town": "\u7af9\u5d0e\u9109", "zipcode": "604", "data": []}, {"town": "\u963f\u91cc\u5c71\u9109", "zipcode": "605", "data": []}, {"town": "\u4e2d\u57d4\u9109", "zipcode": "606", "data": []}, {"town": "\u5927\u57d4\u9109", "zipcode": "607", "data": []}, {"town": "\u6c34\u4e0a\u9109", "zipcode": "608", "data": []}, {"town": "\u9e7f\u8349\u9109", "zipcode": "611", "data": []}, {"town": "\u592a\u4fdd\u5e02", "zipcode": "612", "data": []}, {"town": "\u6734\u5b50\u5e02", "zipcode": "613", "data": []}, {"town": "\u6771\u77f3\u9109", "zipcode": "614", "data": []}, {"town": "\u516d\u8173\u9109", "zipcode": "615", "data": []}, {"town": "\u65b0\u6e2f\u9109", "zipcode": "616", "data": []}, {"town": "\u6c11\u96c4\u9109", "zipcode": "621", "data": []}, {"town": "\u5927\u6797\u93ae", "zipcode": "622", "data": [{"id": "012115", "name": "\u5168\u5bb6\u5927\u6797\u6148\u9662\u5e97", "address": "\u5609\u7fa9\u7e23\u5927\u6797\u93ae\u6c11\u751f\u8def\uff12\u865f\uff22\uff11\u6a13", "zipcode": "622", "city": "\u5609\u7fa9\u7e23", "town": "\u5927\u6797\u93ae", "data": [{"name": "\u5c65\u6b77\u6c34\u84ee", "qty": 1, "scate": "\u6839\u8396\u679c\uff08\u514d\u7a05\uff09", "cate": "\u852c\u679c"}, {"name": "\u6709\u6a5f\u91d1\u91dd\u83c7", "qty": 1, "scate": "\u6839\u8396\u679c\uff08\u514d\u7a05\uff09", "cate": "\u852c\u679c"}]}]}, {"town": "\u6eaa\u53e3\u9109", "zipcode": "623", "data": []}, {"town": "\u7fa9\u7af9\u9109", "zipcode": "624", "data": []}, {"town": "\u5e03\u888b\u93ae", "zipcode": "625", "data": []}], "updatetime": 1763248578}