{"city": "\u65b0\u7af9\u7e23", "ccode": "hsinchucounty", "town": [{"town": "\u5bf6\u5c71\u9109", "zipcode": "308", "data": []}, {"town": "\u7af9\u5317\u5e02", "zipcode": "302", "data": [{"id": "010040", "name": "\u5168\u5bb6\u7af9\u5317\u65b0\u83ef\u8208\u5e97", "address": "\u65b0\u7af9\u7e23\u7af9\u5317\u5e02\u83ef\u8208\u8857\uff12\uff18\uff17\u865f\uff11\u6a13", "zipcode": "302", "city": "\u65b0\u7af9\u7e23", "town": "\u7af9\u5317\u5e02", "data": [{"name": "\u5c65\u6b77\u79cb\u8475200G", "qty": 1, "scate": "\u6839\u8396\u679c\uff08\u514d\u7a05\uff09", "cate": "\u852c\u679c"}, {"name": "\u5c65\u6b77\u6c34\u84ee", "qty": 1, "scate": "\u6839\u8396\u679c\uff08\u514d\u7a05\uff09", "cate": "\u852c\u679c"}, {"name": "\u5c65\u6b77\u725b\u756a\u8304", "qty": 1, "scate": "\u6839\u8396\u679c\uff08\u514d\u7a05\uff09", "cate": "\u852c\u679c"}, {"name": "\u5c65\u6b77\u6adb\u74dc", "qty": 2, "scate": "\u6839\u8396\u679c\uff08\u514d\u7a05\uff09", "cate": "\u852c\u679c"}, {"name": "\u5c65\u6b77\u9752\u8525", "qty": 1, "scate": "\u6839\u8396\u679c\uff08\u514d\u7a05\uff09", "cate": "\u852c\u679c"}, {"name": "\u6709\u6a5f\u9ec3\u8c46\u82bd", "qty": 1, "scate": "\u6839\u8396\u679c\uff08\u514d\u7a05\uff09", "cate": "\u852c\u679c"}, {"name": "\u9ad8\u5c71\u9ad8\u9e97\u83dc\uff15\uff10\uff10\uff47", "qty": 2, "scate": "\u6839\u8396\u679c\uff08\u514d\u7a05\uff09", "cate": "\u852c\u679c"}, {"name": "\u6709\u6a5f\u9bae\u9999\u83c7", "qty": 1, "scate": "\u6839\u8396\u679c\uff08\u514d\u7a05\uff09", "cate": "\u852c\u679c"}]}, {"id": "020147", "name": "\u5168\u5bb6\u7af9\u5317\u91d1\u516d\u5bb6\u5e97", "address": "\u65b0\u7af9\u7e23\u7af9\u5317\u5e02\u516d\u5bb6\u4e94\u8def\uff12\u6bb5\uff11\uff11\uff15\u865f", "zipcode": "302", "city": "\u65b0\u7af9\u7e23", "town": "\u7af9\u5317\u5e02", "data": [{"name": "\u5c65\u6b77\u53bb\u6bbc\u7389\u7c73\u7b4d", "qty": 1, "scate": "\u6839\u8396\u679c\uff08\u514d\u7a05\uff09", "cate": "\u852c\u679c"}, {"name": "\u5c65\u6b77\u6adb\u74dc", "qty": 1, "scate": "\u6839\u8396\u679c\uff08\u514d\u7a05\uff09", "cate": "\u852c\u679c"}, {"name": "\u9ad8\u5c71\u9ad8\u9e97\u83dc\uff15\uff10\uff10\uff47", "qty": 1, "scate": "\u6839\u8396\u679c\uff08\u514d\u7a05\uff09", "cate": "\u852c\u679c"}]}, {"id": "024250", "name": "\u5168\u5bb6\u7af9\u5317\u53f0\u79d1\u5e97", "address": "\u65b0\u7af9\u7e23\u7af9\u5317\u5e02\u79d1\u5927\u4e8c\u8857\uff11\uff10\uff16\u865f", "zipcode": "302", "city": "\u65b0\u7af9\u7e23", "town": "\u7af9\u5317\u5e02", "data": [{"name": "\u5c65\u6b77\u79cb\u8475200G", "qty": 1, "scate": "\u6839\u8396\u679c\uff08\u514d\u7a05\uff09", "cate": "\u852c\u679c"}, {"name": "\u5c65\u6b77\u725b\u756a\u8304", "qty": 2, "scate": "\u6839\u8396\u679c\uff08\u514d\u7a05\uff09", "cate": "\u852c\u679c"}, {"name": "\u5c65\u6b77\u6c34\u679c\u7389\u7c73", "qty": 1, "scate": "\u6839\u8396\u679c\uff08\u514d\u7a05\uff09", "cate": "\u852c\u679c"}, {"name": "\u6709\u6a5f\u91d1\u91dd\u83c7", "qty": 1, "scate": "\u6839\u8396\u679c\uff08\u514d\u7a05\uff09", "cate": "\u852c\u679c"}, {"name": "\u5c65\u6b77\u9752\u8525", "qty": 1, "scate": "\u6839\u8396\u679c\uff08\u514d\u7a05\uff09", "cate": "\u852c\u679c"}, {"name": "\u6709\u6a5f\u674f\u9b91\u83c7", "qty": 1, "scate": "\u6839\u8396\u679c\uff08\u514d\u7a05\uff09", "cate": "\u852c\u679c"}]}]}, {"town": "\u6e56\u53e3\u9109", "zipcode": "303", "data": [{"id": "023359", "name": "\u5168\u5bb6\u6e56\u53e3\u6e56\u5fc3\u5e97", "address": "\u65b0\u7af9\u7e23\u6e56\u53e3\u9109\u9054\u751f\u4e8c\u8857\uff13\uff17\uff12\u865f", "zipcode": "303", "city": "\u65b0\u7af9\u7e23", "town": "\u6e56\u53e3\u9109", "data": [{"name": "\u5c65\u6b77\u79cb\u8475200G", "qty": 1, "scate": "\u6839\u8396\u679c\uff08\u514d\u7a05\uff09", "cate": "\u852c\u679c"}, {"name": "\u5c65\u6b77\u725b\u756a\u8304", "qty": 1, "scate": "\u6839\u8396\u679c\uff08\u514d\u7a05\uff09", "cate": "\u852c\u679c"}, {"name": "\u9032\u53e3\u6d0b\u8525", "qty": 1, "scate": "\u6839\u8396\u679c\uff08\u514d\u7a05\uff09", "cate": "\u852c\u679c"}]}]}, {"town": "\u65b0\u8c50\u9109", "zipcode": "304", "data": []}, {"town": "\u65b0\u57d4\u93ae", "zipcode": "305", "data": []}, {"town": "\u95dc\u897f\u93ae", "zipcode": "306", "data": []}, {"town": "\u828e\u6797\u9109", "zipcode": "307", "data": []}, {"town": "\u7af9\u6771\u93ae", "zipcode": "310", "data": [{"id": "014613", "name": "\u5168\u5bb6\u7af9\u6771\u65b0\u5e02\u5e97", "address": "\u65b0\u7af9\u7e23\u7af9\u6771\u93ae\u4e2d\u592e\u8def\uff19\uff12\u865f", "zipcode": "310", "city": "\u65b0\u7af9\u7e23", "town": "\u7af9\u6771\u93ae", "data": [{"name": "\u6709\u6a5f\u9bae\u9999\u83c7", "qty": 1, "scate": "\u6839\u8396\u679c\uff08\u514d\u7a05\uff09", "cate": "\u852c\u679c"}]}]}, {"town": "\u4e94\u5cf0\u9109", "zipcode": "311", "data": []}, {"town": "\u6a6b\u5c71\u9109", "zipcode": "312", "data": []}, {"town": "\u5c16\u77f3\u9109", "zipcode": "313", "data": []}, {"town": "\u5317\u57d4\u9109", "zipcode": "314", "data": []}, {"town": "\u5ce8\u7709\u9109", "zipcode": "315", "data": []}], "updatetime": 1763243685}