{"city": "\u82b1\u84ee\u7e23", "ccode": "hualien", "town": [{"town": "\u82b1\u84ee\u5e02", "zipcode": "970", "data": [{"id": "024720", "name": "\u5168\u5bb6\u82b1\u84ee\u5c1a\u7f8e\u5e97", "address": "\u82b1\u84ee\u7e23\u82b1\u84ee\u5e02\u4e2d\u7f8e\u8def\uff12\uff19\uff13\u4e4b\uff18\u865f", "zipcode": "970", "city": "\u82b1\u84ee\u7e23", "town": "\u82b1\u84ee\u5e02", "data": [{"name": "\u5c65\u6b77\u9752\u8525", "qty": 1, "scate": "\u6839\u8396\u679c\uff08\u514d\u7a05\uff09", "cate": "\u852c\u679c"}]}]}, {"town": "\u65b0\u57ce\u9109", "zipcode": "971", "data": [{"id": "005778", "name": "\u5168\u5bb6\u65b0\u57ce\u5609\u65b0\u5e97", "address": "\u82b1\u84ee\u7e23\u65b0\u57ce\u9109\u5609\u65b0\u6751\u82b1\u5e2b\u8857\uff13\uff17\u865f\u4e00\u6a13", "zipcode": "971", "city": "\u82b1\u84ee\u7e23", "town": "\u65b0\u57ce\u9109", "data": [{"name": "\u525d\u76ae\u849c\u4ec1", "qty": 1, "scate": "\u6839\u8396\u679c\uff08\u514d\u7a05\uff09", "cate": "\u852c\u679c"}, {"name": "\u6709\u6a5f\u9ec3\u8c46\u82bd", "qty": 1, "scate": "\u6839\u8396\u679c\uff08\u514d\u7a05\uff09", "cate": "\u852c\u679c"}]}, {"id": "024075", "name": "\u5168\u5bb6\u65b0\u57ce\u9752\u5b85\u5e97", "address": "\u82b1\u84ee\u7e23\u65b0\u57ce\u9109\u5317\u57d4\u8def\uff13\uff13\uff19\u865f", "zipcode": "971", "city": "\u82b1\u84ee\u7e23", "town": "\u65b0\u57ce\u9109", "data": [{"name": "\u5c65\u6b77\u7d72\u74dc", "qty": 1, "scate": "\u6839\u8396\u679c\uff08\u514d\u7a05\uff09", "cate": "\u852c\u679c"}, {"name": "\u6709\u6a5f\u9d3b\u559c\u83c7", "qty": 1, "scate": "\u6839\u8396\u679c\uff08\u514d\u7a05\uff09", "cate": "\u852c\u679c"}, {"name": "\u6709\u6a5f\u91d1\u91dd\u83c7", "qty": 1, "scate": "\u6839\u8396\u679c\uff08\u514d\u7a05\uff09", "cate": "\u852c\u679c"}, {"name": "\u5c65\u6b77\u6adb\u74dc", "qty": 1, "scate": "\u6839\u8396\u679c\uff08\u514d\u7a05\uff09", "cate": "\u852c\u679c"}, {"name": "\u5c65\u6b77\u6c34\u679c\u5f69\u6912", "qty": 1, "scate": "\u6839\u8396\u679c\uff08\u514d\u7a05\uff09", "cate": "\u852c\u679c"}, {"name": "\u9ad8\u5c71\u9ad8\u9e97\u83dc\uff15\uff10\uff10\uff47", "qty": 2, "scate": "\u6839\u8396\u679c\uff08\u514d\u7a05\uff09", "cate": "\u852c\u679c"}, {"name": "\u6709\u6a5f\u9bae\u9999\u83c7", "qty": 2, "scate": "\u6839\u8396\u679c\uff08\u514d\u7a05\uff09", "cate": "\u852c\u679c"}]}]}, {"town": "\u79c0\u6797\u9109", "zipcode": "972", "data": []}, {"town": "\u5409\u5b89\u9109", "zipcode": "973", "data": []}, {"town": "\u58fd\u8c50\u9109", "zipcode": "974", "data": []}, {"town": "\u9cf3\u6797\u93ae", "zipcode": "975", "data": []}, {"town": "\u5149\u5fa9\u9109", "zipcode": "976", "data": []}, {"town": "\u8c50\u6ff1\u9109", "zipcode": "977", "data": []}, {"town": "\u745e\u7a57\u9109", "zipcode": "978", "data": []}, {"town": "\u842c\u69ae\u9109", "zipcode": "979", "data": []}, {"town": "\u7389\u91cc\u93ae", "zipcode": "981", "data": []}, {"town": "\u5353\u6eaa\u9109", "zipcode": "982", "data": []}, {"town": "\u5bcc\u91cc\u9109", "zipcode": "983", "data": [{"id": "020707", "name": "\u5168\u5bb6\u5bcc\u91cc\u5fa1\u7687\u7c73\u5e97", "address": "\u82b1\u84ee\u7e23\u5bcc\u91cc\u9109\u6771\u91cc\u6751\u5927\u838a\u8def\uff11\u4e4b\uff11\u865f", "zipcode": "983", "city": "\u82b1\u84ee\u7e23", "town": "\u5bcc\u91cc\u9109", "data": [{"name": "\u5c65\u6b77\u7d05\u863f\u8514", "qty": 1, "scate": "\u6839\u8396\u679c\uff08\u514d\u7a05\uff09", "cate": "\u852c\u679c"}]}]}], "updatetime": 1763222514}