{"city": "\u9ad8\u96c4\u5e02", "ccode": "kaohsiung", "town": [{"town": "\u65b0\u8208\u5340", "zipcode": "800", "data": []}, {"town": "\u524d\u91d1\u5340", "zipcode": "801", "data": []}, {"town": "\u82d3\u96c5\u5340", "zipcode": "802", "data": [{"id": "007932", "name": "\u5168\u5bb6\u9ad8\u96c4\u5be6\u8e10\u5e97", "address": "\u9ad8\u96c4\u5e02\u82d3\u96c5\u5340\u540c\u6176\u91cc\u548c\u5e73\u4e00\u8def\uff11\uff13\uff10\u865f\u4e00\u6a13", "zipcode": "802", "city": "\u9ad8\u96c4\u5e02", "town": "\u82d3\u96c5\u5340", "data": [{"name": "\u5c65\u6b77\u725b\u756a\u8304", "qty": 1, "scate": "\u6839\u8396\u679c\uff08\u514d\u7a05\uff09", "cate": "\u852c\u679c"}]}, {"id": "017077", "name": "\u5168\u5bb6\u9ad8\u96c4\u6771\u69ae\u5e97", "address": "\u9ad8\u96c4\u5e02\u82d3\u96c5\u5340\u81ea\u5f37\u4e09\u8def\uff11\uff16\u865f", "zipcode": "802", "city": "\u9ad8\u96c4\u5e02", "town": "\u82d3\u96c5\u5340", "data": [{"name": "\u5c65\u6b77\u6c34\u679c\u7389\u7c73", "qty": 1, "scate": "\u6839\u8396\u679c\uff08\u514d\u7a05\uff09", "cate": "\u852c\u679c"}, {"name": "\u6709\u6a5f\u9ed1\u7f8e\u4eba\u83c7", "qty": 1, "scate": "\u6839\u8396\u679c\uff08\u514d\u7a05\uff09", "cate": "\u852c\u679c"}]}]}, {"town": "\u9e7d\u57d5\u5340", "zipcode": "803", "data": []}, {"town": "\u9f13\u5c71\u5340", "zipcode": "804", "data": [{"id": "021290", "name": "\u5168\u5bb6\u9ad8\u96c4\u9f8d\u5821\u5e97", "address": "\u9ad8\u96c4\u5e02\u9f13\u5c71\u5340\u9f8d\u52dd\u8def\uff11\uff13\uff16\u865f", "zipcode": "804", "city": "\u9ad8\u96c4\u5e02", "town": "\u9f13\u5c71\u5340", "data": [{"name": "\u5c65\u6b77\u79cb\u8475200G", "qty": 2, "scate": "\u6839\u8396\u679c\uff08\u514d\u7a05\uff09", "cate": "\u852c\u679c"}]}]}, {"town": "\u65d7\u6d25\u5340", "zipcode": "805", "data": []}, {"town": "\u524d\u93ae\u5340", "zipcode": "806", "data": [{"id": "017001", "name": "\u5168\u5bb6\u9ad8\u96c4\u912d\u548c\u5e97", "address": "\u9ad8\u96c4\u5e02\u524d\u93ae\u5340\u912d\u548c\u5357\u8def\uff14\uff12\uff10\u4e4b\uff11\u865f", "zipcode": "806", "city": "\u9ad8\u96c4\u5e02", "town": "\u524d\u93ae\u5340", "data": [{"name": "\u5c65\u6b77\u79cb\u8475200G", "qty": 2, "scate": "\u6839\u8396\u679c\uff08\u514d\u7a05\uff09", "cate": "\u852c\u679c"}, {"name": "\u5c65\u6b77\u725b\u756a\u8304", "qty": 1, "scate": "\u6839\u8396\u679c\uff08\u514d\u7a05\uff09", "cate": "\u852c\u679c"}, {"name": "\u5c65\u6b77\u53bb\u6bbc\u7389\u7c73\u7b4d", "qty": 4, "scate": "\u6839\u8396\u679c\uff08\u514d\u7a05\uff09", "cate": "\u852c\u679c"}, {"name": "\u5c65\u6b77\u6c34\u679c\u7389\u7c73", "qty": 2, "scate": "\u6839\u8396\u679c\uff08\u514d\u7a05\uff09", "cate": "\u852c\u679c"}, {"name": "\u5c65\u6b77\u6adb\u74dc", "qty": 1, "scate": "\u6839\u8396\u679c\uff08\u514d\u7a05\uff09", "cate": "\u852c\u679c"}, {"name": "\u5c65\u6b77\u9752\u8525", "qty": 5, "scate": "\u6839\u8396\u679c\uff08\u514d\u7a05\uff09", "cate": "\u852c\u679c"}, {"name": "\u5c65\u6b77\u6c34\u679c\u5f69\u6912", "qty": 4, "scate": "\u6839\u8396\u679c\uff08\u514d\u7a05\uff09", "cate": "\u852c\u679c"}, {"name": "\u9ad8\u5c71\u9ad8\u9e97\u83dc\uff15\uff10\uff10\uff47", "qty": 5, "scate": "\u6839\u8396\u679c\uff08\u514d\u7a05\uff09", "cate": "\u852c\u679c"}]}, {"id": "017240", "name": "\u5168\u5bb6\u9ad8\u96c4\u745e\u5317\u5e97", "address": "\u9ad8\u96c4\u5e02\u524d\u93ae\u5340\u745e\u5317\u8def\uff12\uff11\uff13\u865f", "zipcode": "806", "city": "\u9ad8\u96c4\u5e02", "town": "\u524d\u93ae\u5340", "data": [{"name": "\u9032\u53e3\u6d0b\u8525", "qty": 1, "scate": "\u6839\u8396\u679c\uff08\u514d\u7a05\uff09", "cate": "\u852c\u679c"}, {"name": "\u7522\u92b7\u5c65\u6b77\u849c\u982d", "qty": 1, "scate": "\u6839\u8396\u679c\uff08\u514d\u7a05\uff09", "cate": "\u852c\u679c"}, {"name": "\u6709\u6a5f\u9bae\u9999\u83c7", "qty": 1, "scate": "\u6839\u8396\u679c\uff08\u514d\u7a05\uff09", "cate": "\u852c\u679c"}]}]}, {"town": "\u4e09\u6c11\u5340", "zipcode": "807", "data": [{"id": "022486", "name": "\u5168\u5bb6\u9ad8\u96c4\u5927\u5712\u5e97", "address": "\u9ad8\u96c4\u5e02\u4e09\u6c11\u5340\u5927\u660c\u4e00\u8def\uff11\uff18\uff16\u865f", "zipcode": "807", "city": "\u9ad8\u96c4\u5e02", "town": "\u4e09\u6c11\u5340", "data": [{"name": "\u5c65\u6b77\u7d72\u74dc", "qty": 1, "scate": "\u6839\u8396\u679c\uff08\u514d\u7a05\uff09", "cate": "\u852c\u679c"}, {"name": "\u6709\u6a5f\u8c9d\u6bd4\u751f\u83dc", "qty": 2, "scate": "\u6839\u8396\u679c\uff08\u514d\u7a05\uff09", "cate": "\u852c\u679c"}, {"name": "\u5c65\u6b77\u6c34\u679c\u7389\u7c73", "qty": 1, "scate": "\u6839\u8396\u679c\uff08\u514d\u7a05\uff09", "cate": "\u852c\u679c"}, {"name": "\u5c65\u6b77\u9752\u8525", "qty": 2, "scate": "\u6839\u8396\u679c\uff08\u514d\u7a05\uff09", "cate": "\u852c\u679c"}, {"name": "\u9ad8\u5c71\u9ad8\u9e97\u83dc\uff15\uff10\uff10\uff47", "qty": 1, "scate": "\u6839\u8396\u679c\uff08\u514d\u7a05\uff09", "cate": "\u852c\u679c"}, {"name": "\u6709\u6a5f\u9ed1\u7f8e\u4eba\u83c7", "qty": 1, "scate": "\u6839\u8396\u679c\uff08\u514d\u7a05\uff09", "cate": "\u852c\u679c"}]}]}, {"town": "\u6960\u6893\u5340", "zipcode": "811", "data": [{"id": "009238", "name": "\u5168\u5bb6\u9ad8\u96c4\u5f8c\u52c1\u5e97", "address": "\u9ad8\u96c4\u5e02\u6960\u6893\u5340\u5f8c\u660c\u8def\uff11\uff13\uff11\u865f\uff11\u6a13", "zipcode": "811", "city": "\u9ad8\u96c4\u5e02", "town": "\u6960\u6893\u5340", "data": [{"name": "\u5c65\u6b77\u79cb\u8475200G", "qty": 1, "scate": "\u6839\u8396\u679c\uff08\u514d\u7a05\uff09", "cate": "\u852c\u679c"}, {"name": "\u5c65\u6b77\u6c34\u84ee", "qty": 2, "scate": "\u6839\u8396\u679c\uff08\u514d\u7a05\uff09", "cate": "\u852c\u679c"}, {"name": "\u6709\u6a5f\u96ea\u767d\u83c7", "qty": 2, "scate": "\u6839\u8396\u679c\uff08\u514d\u7a05\uff09", "cate": "\u852c\u679c"}, {"name": "\u5c65\u6b77\u7d05\u863f\u8514", "qty": 1, "scate": "\u6839\u8396\u679c\uff08\u514d\u7a05\uff09", "cate": "\u852c\u679c"}, {"name": "\u5c65\u6b77\u6adb\u74dc", "qty": 2, "scate": "\u6839\u8396\u679c\uff08\u514d\u7a05\uff09", "cate": "\u852c\u679c"}, {"name": "\u5c65\u6b77\u9752\u8525", "qty": 3, "scate": "\u6839\u8396\u679c\uff08\u514d\u7a05\uff09", "cate": "\u852c\u679c"}, {"name": "\u6709\u6a5f\u9ec3\u8c46\u82bd", "qty": 1, "scate": "\u6839\u8396\u679c\uff08\u514d\u7a05\uff09", "cate": "\u852c\u679c"}, {"name": "\u7522\u92b7\u5c65\u6b77\u849c\u982d", "qty": 1, "scate": "\u6839\u8396\u679c\uff08\u514d\u7a05\uff09", "cate": "\u852c\u679c"}, {"name": "\u6709\u6a5f\u9ed1\u7f8e\u4eba\u83c7", "qty": 1, "scate": "\u6839\u8396\u679c\uff08\u514d\u7a05\uff09", "cate": "\u852c\u679c"}, {"name": "\u6709\u6a5f\u9bae\u9999\u83c7", "qty": 4, "scate": "\u6839\u8396\u679c\uff08\u514d\u7a05\uff09", "cate": "\u852c\u679c"}]}, {"id": "018371", "name": "\u5168\u5bb6\u9ad8\u96c4\u5275\u91d1\u5e97", "address": "\u9ad8\u96c4\u5e02\u6960\u6893\u5340\u5275\u65b0\u8def\uff18\uff19\uff10\u4e4b\uff11\u865f", "zipcode": "811", "city": "\u9ad8\u96c4\u5e02", "town": "\u6960\u6893\u5340", "data": [{"name": "\u5c65\u6b77\u79cb\u8475200G", "qty": 1, "scate": "\u6839\u8396\u679c\uff08\u514d\u7a05\uff09", "cate": "\u852c\u679c"}]}]}, {"town": "\u5c0f\u6e2f\u5340", "zipcode": "812", "data": [{"id": "017589", "name": "\u5168\u5bb6\u9ad8\u96c4\u5927\u576a\u9802\u5e97", "address": "\u9ad8\u96c4\u5e02\u5c0f\u6e2f\u5340\u9ad8\u576a\u4e8c\u5341\u4e8c\u8def\uff14\uff17\uff11\u865f\u4e00\u6a13", "zipcode": "812", "city": "\u9ad8\u96c4\u5e02", "town": "\u5c0f\u6e2f\u5340", "data": [{"name": "\u5c65\u6b77\u53bb\u6bbc\u7389\u7c73\u7b4d", "qty": 1, "scate": "\u6839\u8396\u679c\uff08\u514d\u7a05\uff09", "cate": "\u852c\u679c"}, {"name": "\u6709\u6a5f\u91d1\u91dd\u83c7", "qty": 1, "scate": "\u6839\u8396\u679c\uff08\u514d\u7a05\uff09", "cate": "\u852c\u679c"}, {"name": "\u9ad8\u5c71\u9ad8\u9e97\u83dc\uff15\uff10\uff10\uff47", "qty": 1, "scate": "\u6839\u8396\u679c\uff08\u514d\u7a05\uff09", "cate": "\u852c\u679c"}]}]}, {"town": "\u5de6\u71df\u5340", "zipcode": "813", "data": [{"id": "011477", "name": "\u5168\u5bb6\u9ad8\u96c4\u7acb\u4fe1\u5e97", "address": "\u9ad8\u96c4\u5e02\u5de6\u71df\u5340\u7acb\u4fe1\u8def\uff12\uff10\uff19\u865f", "zipcode": "813", "city": "\u9ad8\u96c4\u5e02", "town": "\u5de6\u71df\u5340", "data": [{"name": "\u525d\u76ae\u849c\u4ec1", "qty": 1, "scate": "\u6839\u8396\u679c\uff08\u514d\u7a05\uff09", "cate": "\u852c\u679c"}, {"name": "\u5c65\u6b77\u79cb\u8475200G", "qty": 1, "scate": "\u6839\u8396\u679c\uff08\u514d\u7a05\uff09", "cate": "\u852c\u679c"}, {"name": "\u9ad8\u5c71\u9ad8\u9e97\u83dc\uff15\uff10\uff10\uff47", "qty": 1, "scate": "\u6839\u8396\u679c\uff08\u514d\u7a05\uff09", "cate": "\u852c\u679c"}, {"name": "\u5c65\u6b77\u654f\u8c46", "qty": 1, "scate": "\u6839\u8396\u679c\uff08\u514d\u7a05\uff09", "cate": "\u852c\u679c"}]}]}, {"town": "\u4ec1\u6b66\u5340", "zipcode": "814", "data": []}, {"town": "\u5927\u793e\u5340", "zipcode": "815", "data": [{"id": "018257", "name": "\u5168\u5bb6\u5927\u793e\u842c\u6d25\u5e97", "address": "\u9ad8\u96c4\u5e02\u5927\u793e\u5340\u842c\u91d1\u8def\u516b\u865f\u4e00\u6a13", "zipcode": "815", "city": "\u9ad8\u96c4\u5e02", "town": "\u5927\u793e\u5340", "data": [{"name": "\u5c65\u6b77\u53bb\u6bbc\u7389\u7c73\u7b4d", "qty": 1, "scate": "\u6839\u8396\u679c\uff08\u514d\u7a05\uff09", "cate": "\u852c\u679c"}, {"name": "\u5c65\u6b77\u6adb\u74dc", "qty": 1, "scate": "\u6839\u8396\u679c\uff08\u514d\u7a05\uff09", "cate": "\u852c\u679c"}, {"name": "\u5c65\u6b77\u9752\u8525", "qty": 2, "scate": "\u6839\u8396\u679c\uff08\u514d\u7a05\uff09", "cate": "\u852c\u679c"}]}]}, {"town": "\u6771\u6c99\u7fa4\u5cf6", "zipcode": "817", "data": []}, {"town": "\u5357\u6c99\u7fa4\u5cf6", "zipcode": "819", "data": []}, {"town": "\u5ca1\u5c71\u5340", "zipcode": "820", "data": []}, {"town": "\u8def\u7af9\u5340", "zipcode": "821", "data": []}, {"town": "\u963f\u84ee\u5340", "zipcode": "822", "data": []}, {"town": "\u7530\u5bee\u5340", "zipcode": "823", "data": []}, {"town": "\u71d5\u5de2\u5340", "zipcode": "824", "data": []}, {"town": "\u6a4b\u982d\u5340", "zipcode": "825", "data": []}, {"town": "\u6893\u5b98\u5340", "zipcode": "826", "data": []}, {"town": "\u5f4c\u9640\u5340", "zipcode": "827", "data": []}, {"town": "\u6c38\u5b89\u5340", "zipcode": "828", "data": []}, {"town": "\u6e56\u5167\u5340", "zipcode": "829", "data": []}, {"town": "\u9cf3\u5c71\u5340", "zipcode": "830", "data": [{"id": "013403", "name": "\u5168\u5bb6\u9cf3\u5c71\u4e09\u8aa0\u5e97", "address": "\u9ad8\u96c4\u5e02\u9cf3\u5c71\u5340\u4e09\u8aa0\u8def\uff19\uff19\u865f", "zipcode": "830", "city": "\u9ad8\u96c4\u5e02", "town": "\u9cf3\u5c71\u5340", "data": [{"name": "\u525d\u76ae\u849c\u4ec1", "qty": 1, "scate": "\u6839\u8396\u679c\uff08\u514d\u7a05\uff09", "cate": "\u852c\u679c"}, {"name": "\u5c65\u6b77\u79cb\u8475200G", "qty": 1, "scate": "\u6839\u8396\u679c\uff08\u514d\u7a05\uff09", "cate": "\u852c\u679c"}, {"name": "\u5c65\u6b77\u6c34\u84ee", "qty": 2, "scate": "\u6839\u8396\u679c\uff08\u514d\u7a05\uff09", "cate": "\u852c\u679c"}, {"name": "\u5c65\u6b77\u5c0f\u9ec3\u74dcN", "qty": 1, "scate": "\u6839\u8396\u679c\uff08\u514d\u7a05\uff09", "cate": "\u852c\u679c"}, {"name": "\u5c65\u6b77\u725b\u756a\u8304", "qty": 1, "scate": "\u6839\u8396\u679c\uff08\u514d\u7a05\uff09", "cate": "\u852c\u679c"}, {"name": "\u5c65\u6b77\u53bb\u6bbc\u7389\u7c73\u7b4d", "qty": 3, "scate": "\u6839\u8396\u679c\uff08\u514d\u7a05\uff09", "cate": "\u852c\u679c"}, {"name": "\u6709\u6a5f\u8c9d\u6bd4\u751f\u83dc", "qty": 1, "scate": "\u6839\u8396\u679c\uff08\u514d\u7a05\uff09", "cate": "\u852c\u679c"}, {"name": "\u5c65\u6b77\u6c34\u679c\u7389\u7c73", "qty": 1, "scate": "\u6839\u8396\u679c\uff08\u514d\u7a05\uff09", "cate": "\u852c\u679c"}, {"name": "\u5c65\u6b77\u6adb\u74dc", "qty": 1, "scate": "\u6839\u8396\u679c\uff08\u514d\u7a05\uff09", "cate": "\u852c\u679c"}, {"name": "\u5c65\u6b77\u9752\u8525", "qty": 1, "scate": "\u6839\u8396\u679c\uff08\u514d\u7a05\uff09", "cate": "\u852c\u679c"}, {"name": "\u9ad8\u5c71\u9ad8\u9e97\u83dc\uff15\uff10\uff10\uff47", "qty": 1, "scate": "\u6839\u8396\u679c\uff08\u514d\u7a05\uff09", "cate": "\u852c\u679c"}, {"name": "\u7522\u92b7\u5c65\u6b77\u849c\u982d", "qty": 1, "scate": "\u6839\u8396\u679c\uff08\u514d\u7a05\uff09", "cate": "\u852c\u679c"}, {"name": "\u6709\u6a5f\u9ed1\u6728\u8033", "qty": 1, "scate": "\u6839\u8396\u679c\uff08\u514d\u7a05\uff09", "cate": "\u852c\u679c"}, {"name": "\u6709\u6a5f\u9bae\u9999\u83c7", "qty": 1, "scate": "\u6839\u8396\u679c\uff08\u514d\u7a05\uff09", "cate": "\u852c\u679c"}]}]}, {"town": "\u5927\u5bee\u5340", "zipcode": "831", "data": []}, {"town": "\u6797\u5712\u5340", "zipcode": "832", "data": []}, {"town": "\u9ce5\u677e\u5340", "zipcode": "833", "data": [{"id": "002822", "name": "\u5168\u5bb6\u9ce5\u677e\u6ff1\u6e56\u5e97", "address": "\u9ad8\u96c4\u5e02\u9ce5\u677e\u5340\u6587\u524d\u8def\uff13\u5df7\uff12\uff11\uff0d\uff11\u865f", "zipcode": "833", "city": "\u9ad8\u96c4\u5e02", "town": "\u9ce5\u677e\u5340", "data": [{"name": "\u5c65\u6b77\u6c34\u679c\u7389\u7c73", "qty": 1, "scate": "\u6839\u8396\u679c\uff08\u514d\u7a05\uff09", "cate": "\u852c\u679c"}, {"name": "\u5c65\u6b77\u9752\u8525", "qty": 3, "scate": "\u6839\u8396\u679c\uff08\u514d\u7a05\uff09", "cate": "\u852c\u679c"}]}]}, {"town": "\u5927\u6a39\u5340", "zipcode": "840", "data": [{"id": "007971", "name": "\u5168\u5bb6\u5927\u6a39\u7fa9\u5927\u4e8c\u5e97", "address": "\u9ad8\u96c4\u5e02\u5927\u6a39\u5340\u5b78\u57ce\u8def\u4e00\u6bb5\uff18\u5df7\uff12\u865f\u5730\u4e0b\uff11\u6a13", "zipcode": "840", "city": "\u9ad8\u96c4\u5e02", "town": "\u5927\u6a39\u5340", "data": [{"name": "\u5c65\u6b77\u53bb\u6bbc\u7389\u7c73\u7b4d", "qty": 1, "scate": "\u6839\u8396\u679c\uff08\u514d\u7a05\uff09", "cate": "\u852c\u679c"}]}]}, {"town": "\u65d7\u5c71\u5340", "zipcode": "842", "data": []}, {"town": "\u7f8e\u6fc3\u5340", "zipcode": "843", "data": []}, {"town": "\u516d\u9f9c\u5340", "zipcode": "844", "data": []}, {"town": "\u5167\u9580\u5340", "zipcode": "845", "data": []}, {"town": "\u6749\u6797\u5340", "zipcode": "846", "data": []}, {"town": "\u7532\u4ed9\u5340", "zipcode": "847", "data": []}, {"town": "\u6843\u6e90\u5340", "zipcode": "848", "data": []}, {"town": "\u90a3\u746a\u590f\u5340", "zipcode": "849", "data": []}, {"town": "\u8302\u6797\u5340", "zipcode": "851", "data": []}, {"town": "\u8304\u8423\u5340", "zipcode": "852", "data": []}], "updatetime": 1763246757}