{"city": "\u82d7\u6817\u7e23", "ccode": "miaoli", "town": [{"town": "\u7af9\u5357\u93ae", "zipcode": "350", "data": [{"id": "004252", "name": "\u5168\u5bb6\u7af9\u5357\u9f8d\u4f73\u5e97", "address": "\u82d7\u6817\u7e23\u7af9\u5357\u93ae\u4f73\u5317\u4e8c\u8857\uff11\u865f", "zipcode": "350", "city": "\u82d7\u6817\u7e23", "town": "\u7af9\u5357\u93ae", "data": [{"name": "\u525d\u76ae\u849c\u4ec1", "qty": 1, "scate": "\u6839\u8396\u679c\uff08\u514d\u7a05\uff09", "cate": "\u852c\u679c"}, {"name": "\u5c65\u6b77\u79cb\u8475200G", "qty": 2, "scate": "\u6839\u8396\u679c\uff08\u514d\u7a05\uff09", "cate": "\u852c\u679c"}, {"name": "\u5c65\u6b77\u6c34\u84ee", "qty": 1, "scate": "\u6839\u8396\u679c\uff08\u514d\u7a05\uff09", "cate": "\u852c\u679c"}, {"name": "\u5c65\u6b77\u9752\u8525", "qty": 1, "scate": "\u6839\u8396\u679c\uff08\u514d\u7a05\uff09", "cate": "\u852c\u679c"}, {"name": "\u6709\u6a5f\u9bae\u9999\u83c7", "qty": 1, "scate": "\u6839\u8396\u679c\uff08\u514d\u7a05\uff09", "cate": "\u852c\u679c"}]}, {"id": "022051", "name": "\u5168\u5bb6\u7af9\u5357\u65b0\u7fa4\u806f\u5e97", "address": "\u82d7\u6817\u7e23\u7af9\u5357\u93ae\u516c\u7fa9\u91cc\u7fa4\u7fa9\u8def\uff11\uff0d\uff12\u865f\uff17\u6a13", "zipcode": "350", "city": "\u82d7\u6817\u7e23", "town": "\u7af9\u5357\u93ae", "data": [{"name": "\u5c65\u6b77\u5c0f\u9ec3\u74dcN", "qty": 4, "scate": "\u6839\u8396\u679c\uff08\u514d\u7a05\uff09", "cate": "\u852c\u679c"}, {"name": "\u9bae\u5207\u5357\u74dc", "qty": 1, "scate": "\u6839\u8396\u679c\uff08\u514d\u7a05\uff09", "cate": "\u852c\u679c"}, {"name": "\u6709\u6a5f\u8c9d\u6bd4\u751f\u83dc", "qty": 2, "scate": "\u6839\u8396\u679c\uff08\u514d\u7a05\uff09", "cate": "\u852c\u679c"}, {"name": "\u6709\u6a5f\u91d1\u91dd\u83c7", "qty": 2, "scate": "\u6839\u8396\u679c\uff08\u514d\u7a05\uff09", "cate": "\u852c\u679c"}, {"name": "\u5c65\u6b77\u6adb\u74dc", "qty": 3, "scate": "\u6839\u8396\u679c\uff08\u514d\u7a05\uff09", "cate": "\u852c\u679c"}, {"name": "\u6709\u6a5f\u9ed1\u6728\u8033", "qty": 5, "scate": "\u6839\u8396\u679c\uff08\u514d\u7a05\uff09", "cate": "\u852c\u679c"}, {"name": "\u6709\u6a5f\u9bae\u9999\u83c7", "qty": 2, "scate": "\u6839\u8396\u679c\uff08\u514d\u7a05\uff09", "cate": "\u852c\u679c"}]}]}, {"town": "\u982d\u4efd\u5e02", "zipcode": "351", "data": [{"id": "021238", "name": "\u5168\u5bb6\u982d\u4efd\u5730\u4e2d\u6d77\u5e97", "address": "\u82d7\u6817\u7e23\u982d\u4efd\u5e02\u82b1\u5712\u6771\u8def\uff19\uff18\u865f\uff11\u6a13", "zipcode": "351", "city": "\u82d7\u6817\u7e23", "town": "\u982d\u4efd\u5e02", "data": [{"name": "\u5c65\u6b77\u6c34\u84ee", "qty": 1, "scate": "\u6839\u8396\u679c\uff08\u514d\u7a05\uff09", "cate": "\u852c\u679c"}, {"name": "\u5c65\u6b77\u5c0f\u9ec3\u74dcN", "qty": 1, "scate": "\u6839\u8396\u679c\uff08\u514d\u7a05\uff09", "cate": "\u852c\u679c"}, {"name": "\u5c65\u6b77\u725b\u756a\u8304", "qty": 1, "scate": "\u6839\u8396\u679c\uff08\u514d\u7a05\uff09", "cate": "\u852c\u679c"}, {"name": "\u5c65\u6b77\u53bb\u6bbc\u7389\u7c73\u7b4d", "qty": 8, "scate": "\u6839\u8396\u679c\uff08\u514d\u7a05\uff09", "cate": "\u852c\u679c"}, {"name": "\u6709\u6a5f\u8c9d\u6bd4\u751f\u83dc", "qty": 1, "scate": "\u6839\u8396\u679c\uff08\u514d\u7a05\uff09", "cate": "\u852c\u679c"}, {"name": "\u6709\u6a5f\u9ec3\u8c46\u82bd", "qty": 1, "scate": "\u6839\u8396\u679c\uff08\u514d\u7a05\uff09", "cate": "\u852c\u679c"}, {"name": "\u5c65\u6b77\u654f\u8c46", "qty": 1, "scate": "\u6839\u8396\u679c\uff08\u514d\u7a05\uff09", "cate": "\u852c\u679c"}, {"name": "\u6709\u6a5f\u9bae\u9999\u83c7", "qty": 2, "scate": "\u6839\u8396\u679c\uff08\u514d\u7a05\uff09", "cate": "\u852c\u679c"}]}, {"id": "023905", "name": "\u5168\u5bb6\u982d\u4efd\u5411\u6176\u5e97", "address": "\u82d7\u6817\u7e23\u982d\u4efd\u5e02\u6c34\u6e90\u8def\uff12\uff17\uff16\u865f", "zipcode": "351", "city": "\u82d7\u6817\u7e23", "town": "\u982d\u4efd\u5e02", "data": [{"name": "\u525d\u76ae\u849c\u4ec1", "qty": 1, "scate": "\u6839\u8396\u679c\uff08\u514d\u7a05\uff09", "cate": "\u852c\u679c"}, {"name": "\u5c65\u6b77\u5c0f\u9ec3\u74dcN", "qty": 1, "scate": "\u6839\u8396\u679c\uff08\u514d\u7a05\uff09", "cate": "\u852c\u679c"}, {"name": "\u5c65\u6b77\u53bb\u6bbc\u7389\u7c73\u7b4d", "qty": 2, "scate": "\u6839\u8396\u679c\uff08\u514d\u7a05\uff09", "cate": "\u852c\u679c"}, {"name": "\u5c65\u6b77\u9752\u8525", "qty": 1, "scate": "\u6839\u8396\u679c\uff08\u514d\u7a05\uff09", "cate": "\u852c\u679c"}, {"name": "\u9ad8\u5c71\u9ad8\u9e97\u83dc\uff15\uff10\uff10\uff47", "qty": 1, "scate": "\u6839\u8396\u679c\uff08\u514d\u7a05\uff09", "cate": "\u852c\u679c"}, {"name": "\u5c65\u6b77\u654f\u8c46", "qty": 1, "scate": "\u6839\u8396\u679c\uff08\u514d\u7a05\uff09", "cate": "\u852c\u679c"}, {"name": "\u6709\u6a5f\u9bae\u9999\u83c7", "qty": 1, "scate": "\u6839\u8396\u679c\uff08\u514d\u7a05\uff09", "cate": "\u852c\u679c"}]}]}, {"town": "\u4e09\u7063\u9109", "zipcode": "352", "data": []}, {"town": "\u5357\u5e84\u9109", "zipcode": "353", "data": []}, {"town": "\u7345\u6f6d\u9109", "zipcode": "354", "data": []}, {"town": "\u5f8c\u9f8d\u93ae", "zipcode": "356", "data": []}, {"town": "\u901a\u9704\u93ae", "zipcode": "357", "data": []}, {"town": "\u82d1\u88e1\u93ae", "zipcode": "358", "data": []}, {"town": "\u82d7\u6817\u5e02", "zipcode": "360", "data": []}, {"town": "\u9020\u6a4b\u9109", "zipcode": "361", "data": []}, {"town": "\u982d\u5c4b\u9109", "zipcode": "362", "data": []}, {"town": "\u516c\u9928\u9109", "zipcode": "363", "data": []}, {"town": "\u5927\u6e56\u9109", "zipcode": "364", "data": []}, {"town": "\u6cf0\u5b89\u9109", "zipcode": "365", "data": []}, {"town": "\u9285\u947c\u9109", "zipcode": "366", "data": [{"id": "023170", "name": "\u5168\u5bb6\u9285\u947c\u529b\u7a4d\u5e97", "address": "\u82d7\u6817\u7e23\u9285\u947c\u9109\u9285\u79d1\u4e03\u8def\uff18\u865f\uff11\u6a13", "zipcode": "366", "city": "\u82d7\u6817\u7e23", "town": "\u9285\u947c\u9109", "data": [{"name": "\u9bae\u5207\u828b\u982d", "qty": 2, "scate": "\u6839\u8396\u679c\uff08\u514d\u7a05\uff09", "cate": "\u852c\u679c"}, {"name": "\u5c65\u6b77\u53bb\u6bbc\u7389\u7c73\u7b4d", "qty": 2, "scate": "\u6839\u8396\u679c\uff08\u514d\u7a05\uff09", "cate": "\u852c\u679c"}]}]}, {"town": "\u4e09\u7fa9\u9109", "zipcode": "367", "data": []}, {"town": "\u897f\u6e56\u9109", "zipcode": "368", "data": []}, {"town": "\u5353\u862d\u93ae", "zipcode": "369", "data": []}], "updatetime": 1763238194}