{"city": "\u5357\u6295\u7e23", "ccode": "nantou", "town": [{"town": "\u5357\u6295\u5e02", "zipcode": "540", "data": []}, {"town": "\u4e2d\u5bee\u9109", "zipcode": "541", "data": []}, {"town": "\u8349\u5c6f\u93ae", "zipcode": "542", "data": []}, {"town": "\u570b\u59d3\u9109", "zipcode": "544", "data": []}, {"town": "\u57d4\u91cc\u93ae", "zipcode": "545", "data": [{"id": "013095", "name": "\u5168\u5bb6\u57d4\u91cc\u5b89\u5fb7\u5e97", "address": "\u5357\u6295\u7e23\u57d4\u91cc\u93ae\u516b\u5fb7\u8def\uff13\uff18\u865f", "zipcode": "545", "city": "\u5357\u6295\u7e23", "town": "\u57d4\u91cc\u93ae", "data": [{"name": "\u6709\u6a5f\u9d3b\u559c\u83c7", "qty": 1, "scate": "\u6839\u8396\u679c\uff08\u514d\u7a05\uff09", "cate": "\u852c\u679c"}, {"name": "\u5c65\u6b77\u725b\u756a\u8304", "qty": 1, "scate": "\u6839\u8396\u679c\uff08\u514d\u7a05\uff09", "cate": "\u852c\u679c"}, {"name": "\u5c65\u6b77\u53bb\u6bbc\u7389\u7c73\u7b4d", "qty": 1, "scate": "\u6839\u8396\u679c\uff08\u514d\u7a05\uff09", "cate": "\u852c\u679c"}, {"name": "\u6709\u6a5f\u91d1\u91dd\u83c7", "qty": 1, "scate": "\u6839\u8396\u679c\uff08\u514d\u7a05\uff09", "cate": "\u852c\u679c"}, {"name": "\u5c65\u6b77\u9752\u8525", "qty": 1, "scate": "\u6839\u8396\u679c\uff08\u514d\u7a05\uff09", "cate": "\u852c\u679c"}]}]}, {"town": "\u4ec1\u611b\u9109", "zipcode": "546", "data": []}, {"town": "\u540d\u9593\u9109", "zipcode": "551", "data": []}, {"town": "\u96c6\u96c6\u93ae", "zipcode": "552", "data": []}, {"town": "\u6c34\u91cc\u9109", "zipcode": "553", "data": []}, {"town": "\u9b5a\u6c60\u9109", "zipcode": "555", "data": []}, {"town": "\u4fe1\u7fa9\u9109", "zipcode": "556", "data": []}, {"town": "\u7af9\u5c71\u93ae", "zipcode": "557", "data": []}, {"town": "\u9e7f\u8c37\u9109", "zipcode": "558", "data": []}], "updatetime": 1763247356}