{"city": "\u6f8e\u6e56\u7e23", "ccode": "penghu", "town": [{"town": "\u99ac\u516c\u5e02", "zipcode": "880", "data": [{"id": "014273", "name": "\u5168\u5bb6\u6f8e\u6e56\u5149\u5fa9\u5e97", "address": "\u6f8e\u6e56\u7e23\u99ac\u516c\u5e02\u5149\u5fa9\u8def\uff11\uff17\uff19\u865f", "zipcode": "880", "city": "\u6f8e\u6e56\u7e23", "town": "\u99ac\u516c\u5e02", "data": [{"name": "\u5c65\u6b77\u9752\u8525", "qty": 2, "scate": "\u6839\u8396\u679c\uff08\u514d\u7a05\uff09", "cate": "\u852c\u679c"}, {"name": "\u6709\u6a5f\u9ed1\u7f8e\u4eba\u83c7", "qty": 2, "scate": "\u6839\u8396\u679c\uff08\u514d\u7a05\uff09", "cate": "\u852c\u679c"}]}, {"id": "024356", "name": "\u5168\u5bb6\u6f8e\u6e56\u897f\u885b\u5e97", "address": "\u6f8e\u6e56\u7e23\u99ac\u516c\u5e02\u897f\u885b\u91cc\u4e94\u798f\u8def\uff11\uff10\uff11\u865f", "zipcode": "880", "city": "\u6f8e\u6e56\u7e23", "town": "\u99ac\u516c\u5e02", "data": [{"name": "\u5c65\u6b77\u725b\u756a\u8304", "qty": 1, "scate": "\u6839\u8396\u679c\uff08\u514d\u7a05\uff09", "cate": "\u852c\u679c"}, {"name": "\u5c65\u6b77\u6adb\u74dc", "qty": 1, "scate": "\u6839\u8396\u679c\uff08\u514d\u7a05\uff09", "cate": "\u852c\u679c"}, {"name": "\u5c65\u6b77\u9752\u8525", "qty": 1, "scate": "\u6839\u8396\u679c\uff08\u514d\u7a05\uff09", "cate": "\u852c\u679c"}, {"name": "\u6709\u6a5f\u9ed1\u7f8e\u4eba\u83c7", "qty": 1, "scate": "\u6839\u8396\u679c\uff08\u514d\u7a05\uff09", "cate": "\u852c\u679c"}, {"name": "\u6709\u6a5f\u9ed1\u6728\u8033", "qty": 1, "scate": "\u6839\u8396\u679c\uff08\u514d\u7a05\uff09", "cate": "\u852c\u679c"}]}]}, {"town": "\u897f\u5dbc\u9109", "zipcode": "881", "data": []}, {"town": "\u671b\u5b89\u9109", "zipcode": "882", "data": [{"id": "012984", "name": "\u5168\u5bb6\u6f8e\u6e56\u671b\u5b89\u5e97", "address": "\u6f8e\u6e56\u7e23\u671b\u5b89\u9109\u6771\u5b89\u6751\uff12\uff0d\uff11\uff13\u865f", "zipcode": "882", "city": "\u6f8e\u6e56\u7e23", "town": "\u671b\u5b89\u9109", "data": [{"name": "\u5c65\u6b77\u9752\u8525", "qty": 2, "scate": "\u6839\u8396\u679c\uff08\u514d\u7a05\uff09", "cate": "\u852c\u679c"}]}]}, {"town": "\u4e03\u7f8e\u9109", "zipcode": "883", "data": []}, {"town": "\u767d\u6c99\u9109", "zipcode": "884", "data": [{"id": "021598", "name": "\u5168\u5bb6\u6f8e\u6e56\u8de8\u6d77\u5e97", "address": "\u6f8e\u6e56\u7e23\u767d\u6c99\u9109\u901a\u6881\u6751\u901a\u6881\uff11\uff19\uff15\u865f\u4e00\u6a13", "zipcode": "884", "city": "\u6f8e\u6e56\u7e23", "town": "\u767d\u6c99\u9109", "data": [{"name": "\u5c65\u6b77\u53bb\u6bbc\u7389\u7c73\u7b4d", "qty": 1, "scate": "\u6839\u8396\u679c\uff08\u514d\u7a05\uff09", "cate": "\u852c\u679c"}]}]}, {"town": "\u6e56\u897f\u9109", "zipcode": "885", "data": []}], "updatetime": 1763230039}