{"city": "\u5c4f\u6771\u7e23", "ccode": "pingtung", "town": [{"town": "\u5c4f\u6771\u5e02", "zipcode": "900", "data": []}, {"town": "\u4e09\u5730\u9580\u9109", "zipcode": "901", "data": []}, {"town": "\u9727\u81fa\u9109", "zipcode": "902", "data": []}, {"town": "\u746a\u5bb6\u9109", "zipcode": "903", "data": []}, {"town": "\u4e5d\u5982\u9109", "zipcode": "904", "data": []}, {"town": "\u91cc\u6e2f\u9109", "zipcode": "905", "data": []}, {"town": "\u9ad8\u6a39\u9109", "zipcode": "906", "data": []}, {"town": "\u9e7d\u57d4\u9109", "zipcode": "907", "data": []}, {"town": "\u9577\u6cbb\u9109", "zipcode": "908", "data": []}, {"town": "\u9e9f\u6d1b\u9109", "zipcode": "909", "data": []}, {"town": "\u7af9\u7530\u9109", "zipcode": "911", "data": []}, {"town": "\u5167\u57d4\u9109", "zipcode": "912", "data": []}, {"town": "\u842c\u4e39\u9109", "zipcode": "913", "data": []}, {"town": "\u6f6e\u5dde\u93ae", "zipcode": "920", "data": []}, {"town": "\u6cf0\u6b66\u9109", "zipcode": "921", "data": []}, {"town": "\u4f86\u7fa9\u9109", "zipcode": "922", "data": []}, {"town": "\u842c\u5dd2\u9109", "zipcode": "923", "data": []}, {"town": "\u5d01\u9802\u9109", "zipcode": "924", "data": []}, {"town": "\u65b0\u57e4\u9109", "zipcode": "925", "data": []}, {"town": "\u5357\u5dde\u9109", "zipcode": "926", "data": []}, {"town": "\u6797\u908a\u9109", "zipcode": "927", "data": []}, {"town": "\u6771\u6e2f\u93ae", "zipcode": "928", "data": []}, {"town": "\u7409\u7403\u9109", "zipcode": "929", "data": []}, {"town": "\u4f73\u51ac\u9109", "zipcode": "931", "data": [{"id": "020728", "name": "\u5168\u5bb6\u4f73\u51ac\u4f73\u548c\u5e97", "address": "\u5c4f\u6771\u7e23\u4f73\u51ac\u9109\u4f73\u548c\u8def\uff11\uff10\uff13\u865f\u4e00\u6a13\u53ca\u5176\u505c\u8eca\u5834\uff08\u5982\u5716\uff09", "zipcode": "931", "city": "\u5c4f\u6771\u7e23", "town": "\u4f73\u51ac\u9109", "data": [{"name": "\u6709\u6a5f\u9d3b\u559c\u83c7", "qty": 1, "scate": "\u6839\u8396\u679c\uff08\u514d\u7a05\uff09", "cate": "\u852c\u679c"}]}]}, {"town": "\u65b0\u5712\u9109", "zipcode": "932", "data": []}, {"town": "\u678b\u5bee\u9109", "zipcode": "940", "data": []}, {"town": "\u678b\u5c71\u9109", "zipcode": "941", "data": []}, {"town": "\u6625\u65e5\u9109", "zipcode": "942", "data": []}, {"town": "\u7345\u5b50\u9109", "zipcode": "943", "data": []}, {"town": "\u8eca\u57ce\u9109", "zipcode": "944", "data": []}, {"town": "\u7261\u4e39\u9109", "zipcode": "945", "data": []}, {"town": "\u6046\u6625\u93ae", "zipcode": "946", "data": []}, {"town": "\u6eff\u5dde\u9109", "zipcode": "947", "data": []}], "updatetime": 1763253095}