{"city": "\u81fa\u6771\u7e23", "ccode": "taitung", "town": [{"town": "\u81fa\u6771\u5e02", "zipcode": "950", "data": [{"id": "021641", "name": "\u5168\u5bb6\u53f0\u6771\u91d1\u751f\u5104\u5e97", "address": "\u53f0\u6771\u7e23\u53f0\u6771\u5e02\u592a\u539f\u8def\u4e00\u6bb5\uff17\uff17\uff16\u865f\uff11\uff26\uff08\u7bc4\u570d\u5982\u9644\u5716\uff09", "zipcode": "950", "city": "\u81fa\u6771\u7e23", "town": "\u81fa\u6771\u5e02", "data": [{"name": "\u6709\u6a5f\u91d1\u91dd\u83c7", "qty": 1, "scate": "\u6839\u8396\u679c\uff08\u514d\u7a05\uff09", "cate": "\u852c\u679c"}]}]}, {"town": "\u7da0\u5cf6\u9109", "zipcode": "951", "data": []}, {"town": "\u862d\u5dbc\u9109", "zipcode": "952", "data": []}, {"town": "\u5ef6\u5e73\u9109", "zipcode": "953", "data": []}, {"town": "\u5351\u5357\u9109", "zipcode": "954", "data": [{"id": "007753", "name": "\u5168\u5bb6\u53f0\u6771\u9f8d\u6cc9\u5e97", "address": "\u53f0\u6771\u7e23\u5351\u5357\u9109\u6eab\u6cc9\u6751\u9f8d\u6cc9\u8def\uff15\uff15\u865f\u4e00\u6a13\u4e4b\uff11", "zipcode": "954", "city": "\u81fa\u6771\u7e23", "town": "\u5351\u5357\u9109", "data": [{"name": "\u5c65\u6b77\u6c34\u679c\u7389\u7c73", "qty": 1, "scate": "\u6839\u8396\u679c\uff08\u514d\u7a05\uff09", "cate": "\u852c\u679c"}]}]}, {"town": "\u9e7f\u91ce\u9109", "zipcode": "955", "data": []}, {"town": "\u95dc\u5c71\u93ae", "zipcode": "956", "data": []}, {"town": "\u6d77\u7aef\u9109", "zipcode": "957", "data": []}, {"town": "\u6c60\u4e0a\u9109", "zipcode": "958", "data": []}, {"town": "\u6771\u6cb3\u9109", "zipcode": "959", "data": [{"id": "015262", "name": "\u5168\u5bb6\u6771\u6cb3\u8fb2\u6703\u5e97", "address": "\u53f0\u6771\u7e23\u6771\u6cb3\u9109\u90fd\u862d\u6751\u90fd\u862d\u8def\uff12\uff10\uff19\uff0d\uff11\u865f", "zipcode": "959", "city": "\u81fa\u6771\u7e23", "town": "\u6771\u6cb3\u9109", "data": [{"name": "\u5c65\u6b77\u79cb\u8475200G", "qty": 1, "scate": "\u6839\u8396\u679c\uff08\u514d\u7a05\uff09", "cate": "\u852c\u679c"}, {"name": "\u5c65\u6b77\u7d05\u863f\u8514", "qty": 1, "scate": "\u6839\u8396\u679c\uff08\u514d\u7a05\uff09", "cate": "\u852c\u679c"}, {"name": "\u6709\u6a5f\u91d1\u91dd\u83c7", "qty": 1, "scate": "\u6839\u8396\u679c\uff08\u514d\u7a05\uff09", "cate": "\u852c\u679c"}, {"name": "\u5c65\u6b77\u9752\u8525", "qty": 1, "scate": "\u6839\u8396\u679c\uff08\u514d\u7a05\uff09", "cate": "\u852c\u679c"}, {"name": "\u9ad8\u5c71\u9ad8\u9e97\u83dc\uff15\uff10\uff10\uff47", "qty": 2, "scate": "\u6839\u8396\u679c\uff08\u514d\u7a05\uff09", "cate": "\u852c\u679c"}, {"name": "\u5c65\u6b77\u654f\u8c46", "qty": 2, "scate": "\u6839\u8396\u679c\uff08\u514d\u7a05\uff09", "cate": "\u852c\u679c"}]}]}, {"town": "\u6210\u529f\u93ae", "zipcode": "961", "data": []}, {"town": "\u9577\u6ff1\u9109", "zipcode": "962", "data": []}, {"town": "\u592a\u9ebb\u91cc\u9109", "zipcode": "963", "data": []}, {"town": "\u91d1\u5cf0\u9109", "zipcode": "964", "data": []}, {"town": "\u5927\u6b66\u9109", "zipcode": "965", "data": []}, {"town": "\u9054\u4ec1\u9109", "zipcode": "966", "data": []}], "updatetime": 1763225616}