{"city": "\u96f2\u6797\u7e23", "ccode": "yunlin", "town": [{"town": "\u6597\u5357\u93ae", "zipcode": "630", "data": []}, {"town": "\u5927\u57e4\u9109", "zipcode": "631", "data": []}, {"town": "\u864e\u5c3e\u93ae", "zipcode": "632", "data": []}, {"town": "\u571f\u5eab\u93ae", "zipcode": "633", "data": []}, {"town": "\u8912\u5fe0\u9109", "zipcode": "634", "data": []}, {"town": "\u6771\u52e2\u9109", "zipcode": "635", "data": []}, {"town": "\u81fa\u897f\u9109", "zipcode": "636", "data": []}, {"town": "\u5d19\u80cc\u9109", "zipcode": "637", "data": []}, {"town": "\u9ea5\u5bee\u9109", "zipcode": "638", "data": []}, {"town": "\u6597\u516d\u5e02", "zipcode": "640", "data": []}, {"town": "\u6797\u5167\u9109", "zipcode": "643", "data": []}, {"town": "\u53e4\u5751\u9109", "zipcode": "646", "data": []}, {"town": "\u83bf\u6850\u9109", "zipcode": "647", "data": []}, {"town": "\u897f\u87ba\u93ae", "zipcode": "648", "data": []}, {"town": "\u4e8c\u5d19\u9109", "zipcode": "649", "data": []}, {"town": "\u5317\u6e2f\u93ae", "zipcode": "651", "data": []}, {"town": "\u6c34\u6797\u9109", "zipcode": "652", "data": []}, {"town": "\u53e3\u6e56\u9109", "zipcode": "653", "data": []}, {"town": "\u56db\u6e56\u9109", "zipcode": "654", "data": []}, {"town": "\u5143\u9577\u9109", "zipcode": "655", "data": []}], "updatetime": 1763232675}